[{"OBJECT_NAME":"STARLINK-11535 [DTC]","OBJECT_ID":"2025-008J","EPOCH":"2026-03-09T12:44:49.748640","MEAN_MOTION":15.70871612,"ECCENTRICITY":0.00019758,"INCLINATION":42.9992,"RA_OF_ASC_NODE":126.7301,"ARG_OF_PERICENTER":251.4188,"MEAN_ANOMALY":108.6466,"EPHEMERIS_TYPE":0,"CLASSIFICATION_TYPE":"U","NORAD_CAT_ID":62595,"ELEMENT_SET_NO":999,"REV_AT_EPOCH":6711,"BSTAR":0.00088026329,"MEAN_MOTION_DOT":0.0011422,"MEAN_MOTION_DDOT":0},{"OBJECT_NAME":"ISS OBJECT XU","OBJECT_ID":"1998-067XU","EPOCH":"2026-03-09T04:46:29.551296","MEAN_MOTION":15.69191892,"ECCENTRICITY":0.00048935,"INCLINATION":51.6248,"RA_OF_ASC_NODE":68.1144,"ARG_OF_PERICENTER":76.6698,"MEAN_ANOMALY":283.4844,"EPHEMERIS_TYPE":0,"CLASSIFICATION_TYPE":"U","NORAD_CAT_ID":66908,"ELEMENT_SET_NO":999,"REV_AT_EPOCH":1510,"BSTAR":0.0013351438,"MEAN_MOTION_DOT":0.00161175,"MEAN_MOTION_DDOT":0}]
